{
    "links": {
        "self": "http://www.neowsapp.com/rest/v1/neo/3727632?api_key=iIulBulltgU6a56xZRHN4H3l9WmuAYTsLGpBGhQ2"
    },
    "id": "3727632",
    "neo_reference_id": "3727632",
    "name": "(2015 RF83)",
    "designation": "2015 RF83",
    "nasa_jpl_url": "http://ssd.jpl.nasa.gov/sbdb.cgi?sstr=3727632",
    "absolute_magnitude_h": 24.9,
    "estimated_diameter": {
        "kilometers": {
            "estimated_diameter_min": 0.0278326768,
            "estimated_diameter_max": 0.0622357573
        },
        "meters": {
            "estimated_diameter_min": 27.8326768072,
            "estimated_diameter_max": 62.2357573367
        },
        "miles": {
            "estimated_diameter_min": 0.0172944182,
            "estimated_diameter_max": 0.0386714948
        },
        "feet": {
            "estimated_diameter_min": 91.3145593761,
            "estimated_diameter_max": 204.1855621004
        }
    },
    "is_potentially_hazardous_asteroid": false,
    "close_approach_data": [
        {
            "close_approach_date": "2012-08-10",
            "close_approach_date_full": "2012-Aug-10 04:07",
            "epoch_date_close_approach": 1344571620000,
            "relative_velocity": {
                "kilometers_per_second": "13.0450369339",
                "kilometers_per_hour": "46962.1329619612",
                "miles_per_hour": "29180.4431173919"
            },
            "miss_distance": {
                "astronomical": "0.4523111012",
                "lunar": "175.9490183668",
                "kilometers": "67664777.316874444",
                "miles": "42044942.9747935672"
            },
            "orbiting_body": "Earth"
        },
        {
            "close_approach_date": "2015-09-01",
            "close_approach_date_full": "2015-Sep-01 12:36",
            "epoch_date_close_approach": 1441110960000,
            "relative_velocity": {
                "kilometers_per_second": "5.5622937726",
                "kilometers_per_hour": "20024.257581518",
                "miles_per_hour": "12442.2949400271"
            },
            "miss_distance": {
                "astronomical": "0.1442327247",
                "lunar": "56.1065299083",
                "kilometers": "21576908.399416389",
                "miles": "13407269.1760646082"
            },
            "orbiting_body": "Earth"
        },
        {
            "close_approach_date": "2018-09-18",
            "close_approach_date_full": "2018-Sep-18 03:04",
            "epoch_date_close_approach": 1537239840000,
            "relative_velocity": {
                "kilometers_per_second": "11.8960771116",
                "kilometers_per_hour": "42825.8776018187",
                "miles_per_hour": "26610.3348909745"
            },
            "miss_distance": {
                "astronomical": "0.3901584453",
                "lunar": "151.7716352217",
                "kilometers": "58366872.379391511",
                "miles": "36267492.7505684118"
            },
            "orbiting_body": "Earth"
        }
    ],
    "orbital_data": {
        "orbit_id": "8",
        "orbit_determination_date": "2017-04-06 08:31:57",
        "first_observation_date": "2015-09-11",
        "last_observation_date": "2015-09-23",
        "data_arc_in_days": 12,
        "observations_used": 24,
        "orbit_uncertainty": "8",
        "minimum_orbit_intersection": ".139528",
        "jupiter_tisserand_invariant": "3.593",
        "epoch_osculation": "2457279.5",
        "eccentricity": ".4562733790683221",
        "semi_major_axis": "2.107451787922796",
        "inclination": "7.024529323617429",
        "ascending_node_longitude": "171.5312374400391",
        "orbital_period": "1117.4674944713",
        "perihelion_distance": "1.145877639423685",
        "perihelion_argument": "167.1535059736035",
        "aphelion_distance": "3.069025936421907",
        "perihelion_time": "2457265.153984462382",
        "mean_anomaly": "4.621669640588478",
        "mean_motion": ".3221570218204195",
        "equinox": "J2000",
        "orbit_class": {
            "orbit_class_type": "AMO",
            "orbit_class_description": "Near-Earth asteroid orbits similar to that of 1221 Amor",
            "orbit_class_range": "1.017 AU < q (perihelion) < 1.3 AU"
        }
    },
    "is_sentry_object": false
}